[{"OBJECT_NAME":"HEAD-3D","OBJECT_ID":"2023-121D","EPOCH":"2026-03-09T23:30:37.088352","MEAN_MOTION":14.62739417,"ECCENTRICITY":0.00055409,"INCLINATION":45.0054,"RA_OF_ASC_NODE":64.1503,"ARG_OF_PERICENTER":112.6347,"MEAN_ANOMALY":247.5097,"EPHEMERIS_TYPE":0,"CLASSIFICATION_TYPE":"U","NORAD_CAT_ID":57629,"ELEMENT_SET_NO":999,"REV_AT_EPOCH":13727,"BSTAR":0.00023960943,"MEAN_MOTION_DOT":1.072e-5,"MEAN_MOTION_DDOT":0},{"OBJECT_NAME":"CZ-6A DEB","OBJECT_ID":"2024-140UL","EPOCH":"2026-03-09T12:50:11.350176","MEAN_MOTION":14.59917023,"ECCENTRICITY":0.00757699,"INCLINATION":88.8398,"RA_OF_ASC_NODE":270.9403,"ARG_OF_PERICENTER":238.5444,"MEAN_ANOMALY":120.8347,"EPHEMERIS_TYPE":0,"CLASSIFICATION_TYPE":"U","NORAD_CAT_ID":61323,"ELEMENT_SET_NO":999,"REV_AT_EPOCH":8032,"BSTAR":0.0015198329,"MEAN_MOTION_DOT":7.595e-5,"MEAN_MOTION_DDOT":0}]
